     2.100          NAVIGATION                              RINEX VERSION / TYPE
fic2rin                                 03/29/2009 01:34:36 PGM / RUN BY / DATE
                                                            END OF HEADER
 5 09  3 28 22  0  0.0 -.183875672519D-04 -.104591890704D-10  .000000000000D+00
     .840000000000D+02  .254062500000D+02  .535379443560D-08 -.390611402510D+00
     .137649476528D-05  .946730573196D-02  .489503145218D-05  .515358538246D+04
     .597600000000D+06 -.577419996262D-07 -.146129218919D+01  .135973095894D-06
     .945129811422D+00  .277281250000D+03  .129693299627D+01 -.867357557495D-08
     .297869550320D-09  .100000000000D+01  .152400000000D+04  .000000000000D+00
     .340000000000D+01  .630000000000D+02 -.419095158577D-08  .840000000000D+02
     .590406000000D+06  .400000000000D+01
 6 09  3 28 22  0  0.0  .546416267753D-04  .180762071977D-10  .000000000000D+00
     .810000000000D+02 -.393437500000D+02  .515450041992D-08 -.746698532294D+00
    -.200606882572D-05  .586294918321D-02  .876374542713D-05  .515370474434D+04
     .597600000000D+06 -.428408384323D-07 -.363216173892D+00  .119209289551D-06
     .933979977935D+00  .199812500000D+03 -.142034812869D+01 -.837356307823D-08
    -.469662420468D-09  .100000000000D+01  .152400000000D+04  .000000000000D+00
     .240000000000D+01  .000000000000D+00 -.465661287308D-08  .810000000000D+02
     .590406000000D+06  .400000000000D+01
 7 09  3 28 22  0  0.0  .211312435567D-04 -.568434188608D-12  .000000000000D+00
     .680000000000D+02 -.252500000000D+02  .423231915022D-08  .162463046278D+01
    -.110268592834D-05  .237054401077D-02  .112820416689D-04  .515367771530D+04
     .597600000000D+06  .763684511185D-07 -.241273086262D+01  .931322574615D-08
     .966732095106D+00  .164218750000D+03  .290295057385D+01 -.779818196844D-08
     .278583032673D-09  .100000000000D+01  .152400000000D+04  .000000000000D+00
     .240000000000D+01  .000000000000D+00 -.107102096081D-07  .680000000000D+02
     .590406000000D+06  .400000000000D+01
 8 09  3 28 22  0  0.0 -.196107197553D-03 -.136424205266D-11  .000000000000D+00
     .990000000000D+02 -.160312500000D+02  .373086969141D-08  .926715941599D+00
    -.791624188423D-06  .104907460045D-01  .110398977995D-04  .515366814041D+04
     .597600000000D+06  .176951289177D-06 -.235362627460D+01  .931322574615D-07
     .987884418837D+00  .176000000000D+03  .298302341686D+01 -.758888753620D-08
     .255010622216D-09  .100000000000D+01  .152400000000D+04  .000000000000D+00
     .340000000000D+01  .000000000000D+00 -.465661287308D-08  .990000000000D+02
     .590406000000D+06  .400000000000D+01
 9 09  3 28 22  0  0.0  .478583388031D-04  .204636307899D-11  .000000000000D+00
     .450000000000D+02 -.140937500000D+02  .410874257419D-08  .681946755717D+00
    -.698491930962D-06  .202842350118D-01  .122673809528D-04  .515364580917D+04
     .597600000000D+06 -.290572643280D-06 -.244716050210D+01 -.838190317154D-07
     .975698570173D+00  .158843750000D+03  .146549023596D+01 -.806033574534D-08
     .196079596074D-09  .100000000000D+01  .152400000000D+04  .000000000000D+00
     .240000000000D+01  .000000000000D+00 -.558793544769D-08  .450000000000D+02
     .590406000000D+06  .400000000000D+01
10 09  3 28 22  0  0.0 -.134259462357D-04 -.568434188608D-12  .000000000000D+00
     .150000000000D+02  .458750000000D+02  .498163607657D-08 -.202803910692D+01
     .214017927647D-05  .865508988500D-02  .127032399178D-05  .515357161522D+04
     .597600000000D+06  .158324837685D-06  .180064480303D+01 -.409781932831D-07
     .958792955724D+00  .350750000000D+03  .615705763645D+00 -.854321300197D-08
     .272154193457D-09  .100000000000D+01  .152400000000D+04  .000000000000D+00
     .240000000000D+01  .000000000000D+00 -.279396772385D-08  .150000000000D+02
     .590406000000D+06  .400000000000D+01
11 09  3 28 22  0  0.0  .312924385071D-05 -.125055521494D-11  .000000000000D+00
     .780000000000D+02  .630937500000D+02  .581131349310D-08  .146681432312D+01
     .332668423653D-05  .924790208228D-02  .124219805002D-04  .515368817329D+04
     .597600000000D+06 -.143423676491D-06  .519165910967D+00  .800937414169D-07
     .890148860307D+00  .998125000000D+02  .693073905196D+00 -.870179103595D-08
    -.145006040084D-09  .100000000000D+01  .152400000000D+04  .000000000000D+00
     .240000000000D+01  .000000000000D+00 -.121071934700D-07  .780000000000D+02
     .590406000000D+06  .400000000000D+01
12 09  3 28 22  0  0.0 -.300925225019D-03  .454747350886D-11  .000000000000D+00
     .570000000000D+02  .165312500000D+02  .481984362298D-08  .174629744905D+01
     .832602381706D-06  .334300042596D-02  .447593629360D-05  .515368140030D+04
     .597600000000D+06  .596046447754D-07 -.136086726204D+01  .596046447754D-07
     .965998952248D+00  .293625000000D+03 -.774660186700D+00 -.821141346690D-08
     .146791828755D-09  .100000000000D+01  .152400000000D+04  .000000000000D+00
     .240000000000D+01  .000000000000D+00 -.121071934700D-07  .570000000000D+02
     .590406000000D+06  .400000000000D+01
13 09  3 28 22  0  0.0  .292914453894D-03  .113686837722D-11  .000000000000D+00
     .770000000000D+02 -.117500000000D+03  .386694678814D-08 -.222462992392D+01
    -.602193176746D-05  .395260844380D-02  .687129795551D-05  .515373455048D+04
     .597600000000D+06  .100582838058D-06  .287953989960D+01  .204890966415D-07
     .995281732862D+00  .267531250000D+03  .152056539022D+01 -.775675167127D-08
    -.356086260993D-09  .100000000000D+01  .152400000000D+04  .000000000000D+00
     .240000000000D+01  .000000000000D+00 -.111758708954D-07  .770000000000D+02
     .590406000000D+06  .400000000000D+01
15 09  3 28 22  0  0.0 -.274596735835D-03 -.454747350886D-11  .000000000000D+00
     .570000000000D+02 -.113656250000D+03  .472555398115D-08 -.221444871044D+01
    -.592321157455D-05  .143737473991D-02  .650063157082D-05  .515360123253D+04
     .597600000000D+06 -.949949026108D-07  .280984461269D+01  .372529029846D-08
     .956851354757D+00  .252687500000D+03 -.569256824335D+00 -.823570019283D-08
    -.393230665350D-09  .100000000000D+01  .152400000000D+04  .000000000000D+00
     .240000000000D+01  .000000000000D+00 -.977888703346D-08  .570000000000D+02
     .590406000000D+06  .400000000000D+01
16 09  3 28 22  0  0.0  .639413483441D-04 -.306954461848D-11  .000000000000D+00
     .790000000000D+02  .981250000000D+01  .469340978507D-08 -.768679786370D+00
     .491738319397D-06  .525626365561D-02  .509619712830D-05  .515377670097D+04
     .597600000000D+06 -.353902578354D-07 -.134399997751D+01 -.165775418282D-06
     .967492699863D+00  .286562500000D+03 -.377208531815D+00 -.815212528303D-08
     .194293807403D-09  .100000000000D+01  .152400000000D+04  .000000000000D+00
     .240000000000D+01  .000000000000D+00 -.977888703346D-08  .790000000000D+02
     .590406000000D+06  .400000000000D+01
17 09  3 28 22  0  0.0  .519519671798D-04  .147792889038D-11  .000000000000D+00
     .500000000000D+02 -.499375000000D+02  .447411493627D-08 -.185900204180D+01
    -.258348882198D-05  .437459594104D-02  .910647213459D-05  .515365649605D+04
     .597600000000D+06 -.670552253723D-07 -.301636906331D+00 -.122934579849D-06
     .960003802777D+00  .204593750000D+03 -.269101674518D+01 -.790354350003D-08
    -.477162732886D-09  .100000000000D+01  .152400000000D+04  .000000000000D+00
     .240000000000D+01  .000000000000D+00 -.102445483208D-07  .500000000000D+02
     .590406000000D+06  .400000000000D+01
18 09  3 28 22  0  0.0 -.705942511559D-04  .341060513165D-11  .000000000000D+00
     .950000000000D+02  .443750000000D+02  .546022744039D-08 -.626651392786D+00
     .250712037086D-05  .100550957723D-01  .832602381706D-06  .515376220512D+04
     .597600000000D+06  .912696123123D-07  .180699127959D+01  .122934579849D-06
     .942849261113D+00  .353875000000D+03 -.243577351350D+01 -.893108630131D-08
     .169649923743D-09  .100000000000D+01  .152400000000D+04  .000000000000D+00
     .340000000000D+01  .000000000000D+00 -.107102096081D-07  .950000000000D+02
     .590406000000D+06  .400000000000D+01
19 09  3 28 22  0  0.0  .296286307275D-04 -.909494701773D-12  .000000000000D+00
     .630000000000D+02 -.330625000000D+02  .455626121514D-08 -.253511134769D+01
    -.156089663506D-05  .538172898814D-02  .995025038719D-05  .515357986641D+04
     .597600000000D+06 -.242143869400D-07 -.245424441519D+00  .372529029846D-08
     .957769961980D+00  .187593750000D+03 -.379027951327D+00 -.794818821680D-08
    -.503949562951D-09  .100000000000D+01  .152400000000D+04  .000000000000D+00
     .240000000000D+01  .000000000000D+00 -.149011611938D-07  .630000000000D+02
     .590406000000D+06  .400000000000D+01
21 09  3 28 22  0  0.0  .221235677600D-04 -.193267624127D-11  .000000000000D+00
     .190000000000D+02  .110218750000D+03  .490841874106D-08  .681194925543D+00
     .587664544582D-05  .149052697234D-01  .103376805782D-04  .515363723946D+04
     .597600000000D+06 -.782310962677D-07  .748197226035D+00  .292435288429D-06
     .934685802261D+00  .168156250000D+03 -.263099428286D+01 -.832141804903D-08
     .657170230921D-10  .100000000000D+01  .152400000000D+04  .000000000000D+00
     .240000000000D+01  .000000000000D+00 -.116415321827D-07  .190000000000D+02
     .590406000000D+06  .400000000000D+01
22 09  3 28 22  0  0.0  .202631577849D-03 -.909494701773D-12  .000000000000D+00
     .870000000000D+02  .456875000000D+02  .542058293189D-08 -.168468219810D+01
     .249966979027D-05  .486516789533D-02  .627711415291D-06  .515366158295D+04
     .597600000000D+06  .558793544769D-07  .181280732986D+01  .465661287308D-07
     .940511368805D+00  .355843750000D+03 -.185168783908D+01 -.880286667473D-08
     .201079804352D-09  .100000000000D+01  .152400000000D+04  .000000000000D+00
     .340000000000D+01  .000000000000D+00 -.181607902050D-07  .870000000000D+02
     .590406000000D+06  .400000000000D+01
